$$SOE
2460728.500000000, A.D. 2025-Feb-22 00:00:00.0000, -2.273082518726832E+08, -4.505240423736092E+08, 2.041411995109686E+07,
2460735.500000000, A.D. 2025-Mar-01 00:00:00.0000, -2.185561315197179E+08, -4.544160035203107E+08, 2.037041370674831E+07,
2460742.500000000, A.D. 2025-Mar-08 00:00:00.0000, -2.097214552282051E+08, -4.581363915078370E+08, 2.031901293068704E+07,
2460749.500000000, A.D. 2025-Mar-15 00:00:00.0000, -2.008073731981175E+08, -4.616834000288557E+08, 2.025991902727699E+07,
2460756.500000000, A.D. 2025-Mar-22 00:00:00.0000, -1.918170777956042E+08, -4.650552695504204E+08, 2.019313620142478E+07,
2460763.500000000, A.D. 2025-Mar-29 00:00:00.0000, -1.827538040300833E+08, -4.682502900827633E+08, 2.011867141840348E+07,
2460770.500000000, A.D. 2025-Apr-05 00:00:00.0000, -1.736208283171031E+08, -4.712668030808108E+08, 2.003653428139061E+07,
2460777.500000000, A.D. 2025-Apr-12 00:00:00.0000, -1.644214674524746E+08, -4.741032023744811E+08, 1.994673701166824E+07,
2460784.500000000, A.D. 2025-Apr-19 00:00:00.0000, -1.551590779842511E+08, -4.767579350085112E+08, 1.984929447637731E+07,
2460791.500000000, A.D. 2025-Apr-26 00:00:00.0000, -1.458370557101695E+08, -4.792295021938531E+08, 1.974422422203454E+07,
2460798.500000000, A.D. 2025-May-03 00:00:00.0000, -1.364588351859870E+08, -4.815164603501272E+08, 1.963154650465611E+07,
2460805.500000000, A.D. 2025-May-10 00:00:00.0000, -1.270278892149947E+08, -4.836174222289565E+08, 1.951128431428882E+07,
2460812.500000000, A.D. 2025-May-17 00:00:00.0000, -1.175477282805539E+08, -4.855310581576744E+08, 1.938346338697049E+07,
2460819.500000000, A.D. 2025-May-24 00:00:00.0000, -1.080218997459951E+08, -4.872560974566441E+08, 1.924811218349949E+07,
2460826.500000000, A.D. 2025-May-31 00:00:00.0000, -9.845398640232894E+07, -4.887913297186027E+08, 1.910526182195848E+07,
2460833.500000000, A.D. 2025-Jun-07 00:00:00.0000, -8.884760476332739E+07, -4.901356047450413E+08, 1.895494609916553E+07,
2460840.500000000, A.D. 2025-Jun-14 00:00:00.0000, -7.920640547144303E+07, -4.912878318058244E+08, 1.879720176338083E+07,
2460847.500000000, A.D. 2025-Jun-21 00:00:00.0000, -6.953407459644395E+07, -4.922469814925302E+08, 1.863206865924466E+07,
2460854.500000000, A.D. 2025-Jun-28 00:00:00.0000, -5.983433269729305E+07, -4.930120884006960E+08, 1.845958960227495E+07,
2460861.500000000, A.D. 2025-Jul-05 00:00:00.0000, -5.011093316310593E+07, -4.935822524842712E+08, 1.827981029840609E+07,
2460868.500000000, A.D. 2025-Jul-12 00:00:00.0000, -4.036766102323116E+07, -4.939566398866879E+08, 1.809277935208085E+07,
2460875.500000000, A.D. 2025-Jul-19 00:00:00.0000, -3.060833203576405E+07, -4.941344838224458E+08, 1.789854829856166E+07,
2460882.500000000, A.D. 2025-Jul-26 00:00:00.0000, -2.083679184340219E+07, -4.941150855644875E+08, 1.769717163659334E+07,
2460889.500000000, A.D. 2025-Aug-02 00:00:00.0000, -1.105691513000150E+07, -4.938978155143442E+08, 1.748870685718510E+07,
2460896.500000000, A.D. 2025-Aug-09 00:00:00.0000, -1.272604753048867E+06, -4.934821143683797E+08, 1.727321446519777E+07,
2460903.500000000, A.D. 2025-Aug-16 00:00:00.0000, 8.512209226181244E+06, -4.928674944422558E+08, 1.705075798162746E+07,
2460910.500000000, A.D. 2025-Aug-23 00:00:00.0000, 1.829357090846027E+07, -4.920535411360950E+08, 1.682140390129679E+07,
2460917.500000000, A.D. 2025-Aug-30 00:00:00.0000, 2.806750064816613E+07, -4.910399138251182E+08, 1.658522163437057E+07,
2460924.500000000, A.D. 2025-Sep-06 00:00:00.0000, 3.782999645307057E+07, -4.898263451737707E+08, 1.634228364371613E+07,
2460931.500000000, A.D. 2025-Sep-13 00:00:00.0000, 4.757703302249331E+07, -4.884126413535747E+08, 1.609266572851369E+07,
2460938.500000000, A.D. 2025-Sep-20 00:00:00.0000, 5.730456169864579E+07, -4.867986848067285E+08, 1.583644701954368E+07,
2460945.500000000, A.D. 2025-Sep-27 00:00:00.0000, 6.700851239126275E+07, -4.849844364426530E+08, 1.557370984350863E+07,
2460952.500000000, A.D. 2025-Oct-04 00:00:00.0000, 7.668479545978510E+07, -4.829699367270299E+08, 1.530453968560708E+07,
2460959.500000000, A.D. 2025-Oct-11 00:00:00.0000, 8.632930318022433E+07, -4.807553066045128E+08, 1.502902520763499E+07,
2460966.500000000, A.D. 2025-Oct-18 00:00:00.0000, 9.593791108112380E+07, -4.783407485273602E+08, 1.474725827313599E+07,
2460973.500000000, A.D. 2025-Oct-25 00:00:00.0000, 1.055064792888347E+08, -4.757265475765172E+08, 1.445933396755931E+07,
2460980.500000000, A.D. 2025-Nov-01 00:00:00.0000, 1.150308539222798E+08, -4.729130726568685E+08, 1.416535061082086E+07,
2460987.500000000, A.D. 2025-Nov-08 00:00:00.0000, 1.245068685727261E+08, -4.699007777952166E+08, 1.386540975621673E+07,
2460994.500000000, A.D. 2025-Nov-15 00:00:00.0000, 1.339303460175609E+08, -4.666902035970315E+08, 1.355961615704978E+07,
2461001.500000000, A.D. 2025-Nov-22 00:00:00.0000, 1.432971005717306E+08, -4.632819786398613E+08, 1.324807768180680E+07,
2461008.500000000, A.D. 2025-Nov-29 00:00:00.0000, 1.526029409241187E+08, -4.596768196665498E+08, 1.293090528451082E+07,
2461015.500000000, A.D. 2025-Dec-06 00:00:00.0000, 1.618436711813905E+08, -4.558755307117636E+08, 1.260821322777036E+07,
2461022.500000000, A.D. 2025-Dec-13 00:00:00.0000, 1.710150905530222E+08, -4.518790045285606E+08, 1.228011924295196E+07,
2461029.500000000, A.D. 2025-Dec-20 00:00:00.0000, 1.801129951714920E+08, -4.476882252887042E+08, 1.194674439042166E+07,
2461036.500000000, A.D. 2025-Dec-27 00:00:00.0000, 1.891331809744129E+08, -4.433042699633692E+08, 1.160821293005809E+07,
2461043.500000000, A.D. 2026-Jan-03 00:00:00.0000, 1.980714461890391E+08, -4.387283089973919E+08, 1.126465228556952E+07,
2461050.500000000, A.D. 2026-Jan-10 00:00:00.0000, 2.069235935279334E+08, -4.339616069525329E+08, 1.091619303702775E+07,
2461057.500000000, A.D. 2026-Jan-17 00:00:00.0000, 2.156854323271376E+08, -4.290055232068791E+08, 1.056296891270411E+07,
2461064.500000000, A.D. 2026-Jan-24 00:00:00.0000, 2.243527807037722E+08, -4.238615126824623E+08, 1.020511677474836E+07,
2461071.500000000, A.D. 2026-Jan-31 00:00:00.0000, 2.329214677562046E+08, -4.185311266029478E+08, 9.842776595753551E+06,
2461078.500000000, A.D. 2026-Feb-07 00:00:00.0000, 2.413873358688915E+08, -4.130160133337589E+08, 9.476091415749639E+06,
2461085.500000000, A.D. 2026-Feb-14 00:00:00.0000, 2.497462433760763E+08, -4.073179193163521E+08, 9.105207255212307E+06,
2461092.500000000, A.D. 2026-Feb-21 00:00:00.0000, 2.579940679726189E+08, -4.014386895176229E+08, 8.730272995950699E+06,
2461099.500000000, A.D. 2026-Feb-28 00:00:00.0000, 2.661267097864542E+08, -3.953802662396426E+08, 8.351440423919797E+06,
2461106.500000000, A.D. 2026-Mar-07 00:00:00.0000, 2.741400920518754E+08, -3.891446882372533E+08, 7.968864463470787E+06,
2461113.500000000, A.D. 2026-Mar-14 00:00:00.0000, 2.820301621568713E+08, -3.827340924720386E+08, 7.582703157672986E+06,
2461120.500000000, A.D. 2026-Mar-21 00:00:00.0000, 2.897928948459948E+08, -3.761507156007053E+08, 7.193117467960432E+06,
2461127.500000000, A.D. 2026-Mar-28 00:00:00.0000, 2.974242955681065E+08, -3.693968941662021E+08, 6.800271161551818E+06,
2461134.500000000, A.D. 2026-Apr-04 00:00:00.0000, 3.049204033635320E+08, -3.624750644542128E+08, 6.404330763208315E+06,
2461141.500000000, A.D. 2026-Apr-11 00:00:00.0000, 3.122772935625756E+08, -3.553877623718068E+08, 6.005465516902670E+06,
2461148.500000000, A.D. 2026-Apr-18 00:00:00.0000, 3.194910804526446E+08, -3.481376233518210E+08, 5.603847342376709E+06,
2461155.500000000, A.D. 2026-Apr-25 00:00:00.0000, 3.265579199576030E+08, -3.407273822652397E+08, 5.199650783720106E+06,
2461162.500000000, A.D. 2026-May-02 00:00:00.0000, 3.334740123575015E+08, -3.331598733680278E+08, 4.793052944818363E+06,
2461169.500000000, A.D. 2026-May-09 00:00:00.0000, 3.402356051705610E+08, -3.254380303450799E+08, 4.384233394851729E+06,
2461176.500000000, A.D. 2026-May-16 00:00:00.0000, 3.468389965730864E+08, -3.175648863092853E+08, 3.973374020526201E+06,
2461183.500000000, A.D. 2026-May-23 00:00:00.0000, 3.532805394074458E+08, -3.095435727306845E+08, 3.560658903992161E+06,
2461190.500000000, A.D. 2026-May-30 00:00:00.0000, 3.595566436973035E+08, -3.013773169747041E+08, 3.146274443328783E+06,
2461197.500000000, A.D. 2026-Jun-06 00:00:00.0000, 3.656637773485265E+08, -2.930694417208325E+08, 2.730409477023005E+06,
2461204.500000000, A.D. 2026-Jun-13 00:00:00.0000, 3.715984686971411E+08, -2.846233660590985E+08, 2.313255092153728E+06,
2461211.500000000, A.D. 2026-Jun-20 00:00:00.0000, 3.773573103999091E+08, -2.760426053351622E+08, 1.895004401149318E+06,
2461218.500000000, A.D. 2026-Jun-27 00:00:00.0000, 3.829369629658401E+08, -2.673307700818504E+08, 1.475852414933860E+06,
2461225.500000000, A.D. 2026-Jul-04 00:00:00.0000, 3.883341579246566E+08, -2.584915648101536E+08, 1.055995948914975E+06,
2461232.500000000, A.D. 2026-Jul-11 00:00:00.0000, 3.935457008820090E+08, -2.495287867897287E+08, 6.356335275023133E+05,
2461239.500000000, A.D. 2026-Jul-18 00:00:00.0000, 3.985684745498916E+08, -2.404463247915059E+08, 2.149652805337608E+05,
2461246.500000000, A.D. 2026-Jul-25 00:00:00.0000, 4.033994417722267E+08, -2.312481577883431E+08, -2.058071705959737E+05,
2461253.500000000, A.D. 2026-Aug-01 00:00:00.0000, 4.080356485887036E+08, -2.219383536607443E+08, -6.264808456297219E+05,
2461260.500000000, A.D. 2026-Aug-08 00:00:00.0000, 4.124742275460764E+08, -2.125210679421715E+08, -1.046851579782948E+06,
2461267.500000000, A.D. 2026-Aug-15 00:00:00.0000, 4.167124016665084E+08, -2.030005421517290E+08, -1.466714241042972E+06,
2461274.500000000, A.D. 2026-Aug-22 00:00:00.0000, 4.207474883078411E+08, -1.933811004919820E+08, -1.885862820633978E+06,
2461281.500000000, A.D. 2026-Aug-29 00:00:00.0000, 4.245769006223887E+08, -1.836671462855884E+08, -2.304090298655108E+06,
2461288.500000000, A.D. 2026-Sep-05 00:00:00.0000, 4.281981487409417E+08, -1.738631610194247E+08, -2.721188714954242E+06,
2461295.500000000, A.D. 2026-Sep-12 00:00:00.0000, 4.316088431294754E+08, -1.639737034996261E+08, -3.136949466409199E+06,
$$EOE